HIMAWARI-8              
1 40267U 14060A   23317.91993946 -.00000252  00000+0  00000+0 0  9994
2 40267   0.0112 267.3351 0000801 307.2269 310.0412  1.00268924 33278
